ONEWEB-0121             
1 47267U 20100K   25292.30806217 -.00000002  00000+0 -41019-4 0  9998
2 47267  87.8962  38.5019 0001627 106.7334 253.3973 13.12444377233044
ONEWEB-0122             
1 47268U 20100L   25292.30305982  .00000289  00000+0  76925-3 0  9990
2 47268  87.8965  38.5058 0001840 105.0436 255.0896 13.12442582232951
ONEWEB-0123             
1 47269U 20100M   25292.29833995  .00000281  00000+0  74669-3 0  9994
2 47269  87.8961  38.5343 0001662  98.0327 262.0990 13.12443380233093
ONEWEB-0124             
1 47270U 20100N   25292.74440841  .00000425  00000+0  11473-2 0  9993
2 47270  87.8965  38.4489 0001544 104.2714 255.8586 13.12444154233033
ONEWEB-0125             
1 47271U 20100P   25292.34049512 -.00000401  00000+0 -11500-2 0  9997
2 47271  87.8964  38.4915 0001509  94.1585 265.9716 13.12443850233041
ONEWEB-0126             
1 47272U 20100Q   25292.74293066  .00000441  00000+0  11911-2 0  9995
2 47272  87.8965  38.4349 0001816 100.1664 259.9670 13.12443730233163
ONEWEB-0127             
1 47273U 20100R   25292.32751991 -.00000551  00000+0 -15679-2 0  9995
2 47273  87.8965  38.5284 0001849 102.5027 257.6308 13.12442894233138
ONEWEB-0128             
1 47274U 20100S   25292.73141826  .00000106  00000+0  26048-3 0  9998
2 47274  87.8956  38.4695 0001828 109.4384 250.6942 13.12445676233209
ONEWEB-0129             
1 47275U 20100T   25292.32914488 -.00000560  00000+0 -15926-2 0  9994
2 47275  87.8965  38.4969 0002882  96.7109 263.4348 13.12443286233081
ONEWEB-0130             
1 47276U 20100U   25292.73791773  .00000316  00000+0  84379-3 0  9996
2 47276  87.8963  38.4120 0001778 104.5270 255.6056 13.12444779233109
ONEWEB-0131             
1 47277U 20100V   25292.73467575  .00000193  00000+0  50125-3 0  9992
2 47277  87.8964  38.4426 0001725 104.0846 256.0474 13.12444358233142
ONEWEB-0132             
1 47278U 20100W   25292.30644366  .00000001  00000+0 -31510-4 0  9998
2 47278  87.8963  38.5294 0001681 102.5460 257.5857 13.12443826232983
ONEWEB-0133             
1 47279U 20100X   25292.32252334 -.00000445  00000+0 -12719-2 0  9992
2 47279  87.8952  38.4914 0001660 106.9739 253.1571 13.12443272233143
ONEWEB-0134             
1 47280U 20100Y   25292.74927261  .00000467  00000+0  12633-2 0  9995
2 47280  87.8965  38.3982 0001896 107.2463 252.8874 13.12443758233176
ONEWEB-0135             
1 47281U 20100Z   25292.33888585 -.00000252  00000+0 -73494-3 0  9993
2 47281  87.8962  38.5201 0001906 114.1380 245.9948 13.12445210233144
ONEWEB-0136             
1 47282U 20100AA  25292.58706812  .00000312  00000+0  83265-3 0  9995
2 47282  87.8965  38.4395 0002065 108.9974 251.1378 13.12445141233103
