[{"OBJECT_NAME":"ONEWEB-0121","OBJECT_ID":"2020-100K","EPOCH":"2025-10-19T07:23:36.571488","MEAN_MOTION":13.12444377,"ECCENTRICITY":0.00016275,"INCLINATION":87.8962,"RA_OF_ASC_NODE":38.5019,"ARG_OF_PERICENTER":106.7334,"MEAN_ANOMALY":253.3973,"EPHEMERIS_TYPE":0,"CLASSIFICATION_TYPE":"U","NORAD_CAT_ID":47267,"ELEMENT_SET_NO":999,"REV_AT_EPOCH":23304,"BSTAR":-4.1018644e-5,"MEAN_MOTION_DOT":-2.0e-8,"MEAN_MOTION_DDOT":0},{"OBJECT_NAME":"ONEWEB-0122","OBJECT_ID":"2020-100L","EPOCH":"2025-10-19T07:16:24.368448","MEAN_MOTION":13.12442582,"ECCENTRICITY":0.00018403,"INCLINATION":87.8965,"RA_OF_ASC_NODE":38.5058,"ARG_OF_PERICENTER":105.0436,"MEAN_ANOMALY":255.0896,"EPHEMERIS_TYPE":0,"CLASSIFICATION_TYPE":"U","NORAD_CAT_ID":47268,"ELEMENT_SET_NO":999,"REV_AT_EPOCH":23295,"BSTAR":0.00076925332,"MEAN_MOTION_DOT":2.89e-6,"MEAN_MOTION_DDOT":0},{"OBJECT_NAME":"ONEWEB-0123","OBJECT_ID":"2020-100M","EPOCH":"2025-10-19T07:09:36.571680","MEAN_MOTION":13.1244338,"ECCENTRICITY":0.00016622,"INCLINATION":87.8961,"RA_OF_ASC_NODE":38.5343,"ARG_OF_PERICENTER":98.0327,"MEAN_ANOMALY":262.099,"EPHEMERIS_TYPE":0,"CLASSIFICATION_TYPE":"U","NORAD_CAT_ID":47269,"ELEMENT_SET_NO":999,"REV_AT_EPOCH":23309,"BSTAR":0.00074669202,"MEAN_MOTION_DOT":2.81e-6,"MEAN_MOTION_DDOT":0},{"OBJECT_NAME":"ONEWEB-0124","OBJECT_ID":"2020-100N","EPOCH":"2025-10-19T17:51:56.886624","MEAN_MOTION":13.12444154,"ECCENTRICITY":0.00015445,"INCLINATION":87.8965,"RA_OF_ASC_NODE":38.4489,"ARG_OF_PERICENTER":104.2714,"MEAN_ANOMALY":255.8586,"EPHEMERIS_TYPE":0,"CLASSIFICATION_TYPE":"U","NORAD_CAT_ID":47270,"ELEMENT_SET_NO":999,"REV_AT_EPOCH":23303,"BSTAR":0.0011473163,"MEAN_MOTION_DOT":4.25e-6,"MEAN_MOTION_DDOT":0},{"OBJECT_NAME":"ONEWEB-0125","OBJECT_ID":"2020-100P","EPOCH":"2025-10-19T08:10:18.778368","MEAN_MOTION":13.1244385,"ECCENTRICITY":0.00015095,"INCLINATION":87.8964,"RA_OF_ASC_NODE":38.4915,"ARG_OF_PERICENTER":94.1585,"MEAN_ANOMALY":265.9716,"EPHEMERIS_TYPE":0,"CLASSIFICATION_TYPE":"U","NORAD_CAT_ID":47271,"ELEMENT_SET_NO":999,"REV_AT_EPOCH":23304,"BSTAR":-0.0011500437,"MEAN_MOTION_DOT":-4.01e-6,"MEAN_MOTION_DDOT":0},{"OBJECT_NAME":"ONEWEB-0126","OBJECT_ID":"2020-100Q","EPOCH":"2025-10-19T17:49:49.209024","MEAN_MOTION":13.1244373,"ECCENTRICITY":0.00018168,"INCLINATION":87.8965,"RA_OF_ASC_NODE":38.4349,"ARG_OF_PERICENTER":100.1664,"MEAN_ANOMALY":259.967,"EPHEMERIS_TYPE":0,"CLASSIFICATION_TYPE":"U","NORAD_CAT_ID":47272,"ELEMENT_SET_NO":999,"REV_AT_EPOCH":23316,"BSTAR":0.0011911179,"MEAN_MOTION_DOT":4.41e-6,"MEAN_MOTION_DDOT":0},{"OBJECT_NAME":"ONEWEB-0127","OBJECT_ID":"2020-100R","EPOCH":"2025-10-19T07:51:37.720224","MEAN_MOTION":13.12442894,"ECCENTRICITY":0.00018497,"INCLINATION":87.8965,"RA_OF_ASC_NODE":38.5284,"ARG_OF_PERICENTER":102.5027,"MEAN_ANOMALY":257.6308,"EPHEMERIS_TYPE":0,"CLASSIFICATION_TYPE":"U","NORAD_CAT_ID":47273,"ELEMENT_SET_NO":999,"REV_AT_EPOCH":23313,"BSTAR":-0.0015678507,"MEAN_MOTION_DOT":-5.51e-6,"MEAN_MOTION_DDOT":0},{"OBJECT_NAME":"ONEWEB-0128","OBJECT_ID":"2020-100S","EPOCH":"2025-10-19T17:33:14.537664","MEAN_MOTION":13.12445676,"ECCENTRICITY":0.00018282,"INCLINATION":87.8956,"RA_OF_ASC_NODE":38.4695,"ARG_OF_PERICENTER":109.4384,"MEAN_ANOMALY":250.6942,"EPHEMERIS_TYPE":0,"CLASSIFICATION_TYPE":"U","NORAD_CAT_ID":47274,"ELEMENT_SET_NO":999,"REV_AT_EPOCH":23320,"BSTAR":0.00026047776,"MEAN_MOTION_DOT":1.06e-6,"MEAN_MOTION_DDOT":0},{"OBJECT_NAME":"ONEWEB-0129","OBJECT_ID":"2020-100T","EPOCH":"2025-10-19T07:53:58.117632","MEAN_MOTION":13.12443286,"ECCENTRICITY":0.0002882,"INCLINATION":87.8965,"RA_OF_ASC_NODE":38.4969,"ARG_OF_PERICENTER":96.7109,"MEAN_ANOMALY":263.4348,"EPHEMERIS_TYPE":0,"CLASSIFICATION_TYPE":"U","NORAD_CAT_ID":47275,"ELEMENT_SET_NO":999,"REV_AT_EPOCH":23308,"BSTAR":-0.0015925555,"MEAN_MOTION_DOT":-5.6e-6,"MEAN_MOTION_DDOT":0},{"OBJECT_NAME":"ONEWEB-0130","OBJECT_ID":"2020-100U","EPOCH":"2025-10-19T17:42:36.091872","MEAN_MOTION":13.12444779,"ECCENTRICITY":0.0001778,"INCLINATION":87.8963,"RA_OF_ASC_NODE":38.412,"ARG_OF_PERICENTER":104.527,"MEAN_ANOMALY":255.6056,"EPHEMERIS_TYPE":0,"CLASSIFICATION_TYPE":"U","NORAD_CAT_ID":47276,"ELEMENT_SET_NO":999,"REV_AT_EPOCH":23310,"BSTAR":0.00084379068,"MEAN_MOTION_DOT":3.16e-6,"MEAN_MOTION_DDOT":0},{"OBJECT_NAME":"ONEWEB-0131","OBJECT_ID":"2020-100V","EPOCH":"2025-10-19T17:37:55.984800","MEAN_MOTION":13.12444358,"ECCENTRICITY":0.00017259,"INCLINATION":87.8964,"RA_OF_ASC_NODE":38.4426,"ARG_OF_PERICENTER":104.0846,"MEAN_ANOMALY":256.0474,"EPHEMERIS_TYPE":0,"CLASSIFICATION_TYPE":"U","NORAD_CAT_ID":47277,"ELEMENT_SET_NO":999,"REV_AT_EPOCH":23314,"BSTAR":0.00050125037,"MEAN_MOTION_DOT":1.93e-6,"MEAN_MOTION_DDOT":0},{"OBJECT_NAME":"ONEWEB-0132","OBJECT_ID":"2020-100W","EPOCH":"2025-10-19T07:21:16.732224","MEAN_MOTION":13.12443826,"ECCENTRICITY":0.0001681,"INCLINATION":87.8963,"RA_OF_ASC_NODE":38.5294,"ARG_OF_PERICENTER":102.546,"MEAN_ANOMALY":257.5857,"EPHEMERIS_TYPE":0,"CLASSIFICATION_TYPE":"U","NORAD_CAT_ID":47278,"ELEMENT_SET_NO":999,"REV_AT_EPOCH":23298,"BSTAR":-3.151002e-5,"MEAN_MOTION_DOT":1.0e-8,"MEAN_MOTION_DDOT":0},{"OBJECT_NAME":"ONEWEB-0133","OBJECT_ID":"2020-100X","EPOCH":"2025-10-19T07:44:26.016576","MEAN_MOTION":13.12443272,"ECCENTRICITY":0.00016603,"INCLINATION":87.8952,"RA_OF_ASC_NODE":38.4914,"ARG_OF_PERICENTER":106.9739,"MEAN_ANOMALY":253.1571,"EPHEMERIS_TYPE":0,"CLASSIFICATION_TYPE":"U","NORAD_CAT_ID":47279,"ELEMENT_SET_NO":999,"REV_AT_EPOCH":23314,"BSTAR":-0.0012719234,"MEAN_MOTION_DOT":-4.45e-6,"MEAN_MOTION_DDOT":0},{"OBJECT_NAME":"ONEWEB-0134","OBJECT_ID":"2020-100Y","EPOCH":"2025-10-19T17:58:57.153504","MEAN_MOTION":13.12443758,"ECCENTRICITY":0.00018969,"INCLINATION":87.8965,"RA_OF_ASC_NODE":38.3982,"ARG_OF_PERICENTER":107.2463,"MEAN_ANOMALY":252.8874,"EPHEMERIS_TYPE":0,"CLASSIFICATION_TYPE":"U","NORAD_CAT_ID":47280,"ELEMENT_SET_NO":999,"REV_AT_EPOCH":23317,"BSTAR":0.0012632779,"MEAN_MOTION_DOT":4.67e-6,"MEAN_MOTION_DDOT":0},{"OBJECT_NAME":"ONEWEB-0135","OBJECT_ID":"2020-100Z","EPOCH":"2025-10-19T08:07:59.737440","MEAN_MOTION":13.1244521,"ECCENTRICITY":0.00019068,"INCLINATION":87.8962,"RA_OF_ASC_NODE":38.5201,"ARG_OF_PERICENTER":114.138,"MEAN_ANOMALY":245.9948,"EPHEMERIS_TYPE":0,"CLASSIFICATION_TYPE":"U","NORAD_CAT_ID":47281,"ELEMENT_SET_NO":999,"REV_AT_EPOCH":23314,"BSTAR":-0.00073494093,"MEAN_MOTION_DOT":-2.52e-6,"MEAN_MOTION_DDOT":0},{"OBJECT_NAME":"ONEWEB-0136","OBJECT_ID":"2020-100AA","EPOCH":"2025-10-19T14:05:22.685568","MEAN_MOTION":13.12445141,"ECCENTRICITY":0.00020653,"INCLINATION":87.8965,"RA_OF_ASC_NODE":38.4395,"ARG_OF_PERICENTER":108.9974,"MEAN_ANOMALY":251.1378,"EPHEMERIS_TYPE":0,"CLASSIFICATION_TYPE":"U","NORAD_CAT_ID":47282,"ELEMENT_SET_NO":999,"REV_AT_EPOCH":23310,"BSTAR":0.00083265051,"MEAN_MOTION_DOT":3.12e-6,"MEAN_MOTION_DDOT":0}]
